FLOCK 4G-24             
1 62637U 25009AE  26068.72509072  .00010513  00000+0  38996-3 0  9991
2 62637  97.4061 151.5140 0001802 280.2808  79.8228 15.27784978 63732
STARLINK-32951          
1 63562U 25075Q   26068.54379762  .00027955  00000+0  10211-2 0  9990
2 63562  43.0033 271.5570 0000989 214.8700 145.2087 15.27594769 51910
