[{"OBJECT_NAME":"FLOCK 4G-24","OBJECT_ID":"2025-009AE","EPOCH":"2026-03-09T17:24:07.838208","MEAN_MOTION":15.27784978,"ECCENTRICITY":0.0001802,"INCLINATION":97.4061,"RA_OF_ASC_NODE":151.514,"ARG_OF_PERICENTER":280.2808,"MEAN_ANOMALY":79.8228,"EPHEMERIS_TYPE":0,"CLASSIFICATION_TYPE":"U","NORAD_CAT_ID":62637,"ELEMENT_SET_NO":999,"REV_AT_EPOCH":6373,"BSTAR":0.00038996067,"MEAN_MOTION_DOT":0.00010513,"MEAN_MOTION_DDOT":0},{"OBJECT_NAME":"STARLINK-32951","OBJECT_ID":"2025-075Q","EPOCH":"2026-03-09T13:03:04.114368","MEAN_MOTION":15.27594769,"ECCENTRICITY":9.892e-5,"INCLINATION":43.0033,"RA_OF_ASC_NODE":271.557,"ARG_OF_PERICENTER":214.87,"MEAN_ANOMALY":145.2087,"EPHEMERIS_TYPE":0,"CLASSIFICATION_TYPE":"U","NORAD_CAT_ID":63562,"ELEMENT_SET_NO":999,"REV_AT_EPOCH":5191,"BSTAR":0.001021077,"MEAN_MOTION_DOT":0.00027955,"MEAN_MOTION_DDOT":0}]
